SatCatId,ObjectName,LaunchYear,OrbitalPeriod,LaunchMass,StatusCode,Inclination,Status,UcsData,OrbitClassEstimated,LaunchSiteCountry,Owner,UseType,Purpose,LaunchVehicleClass,TLE1,TLE2,MeanMotion,Eccentricity,OrbitClass
4068,ATS 5,1969,1447.28,-1.0,-,1.94,Inactive,0,GSO,USA,USA,Unknown,Unknown,Unknown,1 04068U 69069A   24128.58955899 -.00000316  00000+0  00000+0 0  9992,2 04068   1.9355 269.1953 0003082 358.9223 314.1820  0.99496555 38656,0.99496555,0.0003082,GSO
20452,NAVSTAR 18 (USA 50),1990,759.5,-1.0,-,54.74,Inactive,0,MEO,USA,USA,Unknown,Unknown,Unknown,1 20452U 90008A   24127.23839348  .00000096  00000+0  00000+0 0  9999,2 20452  54.7400 160.6207 0015788 270.7060 153.6727  1.89597867241613,1.89597867,0.0015788,MEO
4070,COSMOS 292,1969,99.01,-1.0,UNK,74.05,Inactive,0,LEO,Russia,Russia/USSR,Unknown,Unknown,Unknown,1 04070U 69070A   24128.62862099  .00000519  00000+0  12854-3 0  9999,2 04070  74.0473 322.8536 0009290 119.7828 240.4260 14.54418294894048,14.54418294,0.000929,LEO
28644,SPACEWAY 1,2005,1462.05,-1.0,-,4.71,Inactive,0,GSO,Sea Launch Platform,USA,Unknown,Unknown,Unknown,1 28644U 05015A   24127.10466299 -.00000202  00000+0  00000+0 0  9991,2 28644   4.7069  79.6997 0003285  82.5427  82.2632  0.98491949 69499,0.98491949,0.0003285,GSO
28650,HAMSAT (VO-52),2005,96.18,-1.0,-,97.98,Inactive,0,LEO,India,India,Unknown,Unknown,Unknown,1 28650U 05017B   24128.55398612  .00005784  00000+0  50351-3 0  9990,2 28650  97.9836 114.0831 0021540  95.6905 264.6773 14.97156557 30917,14.97156557,0.002154,LEO
20465,COSMOS 2058,1990,95.8,-1.0,UNK,82.49,Inactive,0,LEO,Russia,Russia/USSR,Unknown,Unknown,Unknown,1 20465U 90010A   24128.57582713  .00003550  00000+0  26008-3 0  9993,2 20465  82.4872 343.7607 0015623  85.2213 275.0796 15.03175209841123,15.03175209,0.0015623,LEO
20473,STTW-4,1990,1436.02,-1.0,-,14.53,Inactive,0,GSO,PRC,China,Unknown,Unknown,Unknown,1 20473U 90011A   24128.56523992 -.00000317  00000+0  00000+0 0  9995,2 20473  14.5324 352.2605 0006209 128.1011  47.0143  1.00276586125317,1.00276586,0.0006209,GSO
20478,MOMO-1B (MOS-1B),1990,103.17,-1.0,-,99.33,Inactive,0,LEO,Japan,Japan,Unknown,Unknown,JAXA H,1 20478U 90013A   24128.62688398  .00000356  00000+0  29440-3 0  9996,2 20478  99.3266 173.5309 0006479 118.3172 241.8643 13.95775590664527,13.9577559,0.0006479,LEO
20479,ORIZURU (DEBUT),1990,112.15,-1.0,UNK,99.05,Inactive,0,LEO,Japan,Japan,Unknown,Unknown,Unknown,1 20479U 90013B   24128.43143733  .00000019  00000+0  10600-3 0  9999,2 20479  99.0481 190.2165 0539603  77.4140 288.6735 12.83949496604653,12.83949496,0.0539603,LEO
20480,JAS-1B (FO-20),1990,112.2,-1.0,-,99.04,Inactive,0,LEO,Japan,Japan,Unknown,Unknown,Unknown,1 20480U 90013C   24128.61683381 -.00000034  00000+0 -12437-4 0  9999,2 20480  99.0442 185.7023 0540942  90.8693 275.4397 12.83458144604488,12.83458144,0.0540942,LEO
12295,KIKU-3 (ETS-IV),1981,248.43,-1.0,-,28.41,Inactive,0,MEO,Japan,Japan,Unknown,Unknown,Unknown,1 12295U 81012A   24128.28609030  .00009367  00000+0  17557-2 0  9997,2 12295  28.4139 204.4814 4885920 309.9901  16.4083  5.79662972595316,5.79662972,0.488592,MEO
12297,COSMOS 1244,1981,104.72,-1.0,UNK,82.95,Inactive,0,LEO,Russia,Russia/USSR,Unknown,Unknown,Unknown,1 12297U 81013A   24128.58046135  .00000074  00000+0  60926-4 0  9990,2 12297  82.9491 295.9162 0030446 179.3495 253.9842 13.75128419813359,13.75128419,0.0030446,LEO
12303,COSMOS 1247,1981,711.07,-1.0,UNK,67.76,Inactive,0,MEO,Russia,Russia/USSR,Unknown,Unknown,Molniya,1 12303U 81016A   24128.25386542 -.00000920  00000+0  00000+0 0  9997,2 12303  67.7573  50.5157 6422097   0.8391 359.8070  2.02509896319567,2.02509896,0.6422097,MEO
20499,RADUGA 25,1990,1434.95,-1.0,-,13.13,Inactive,0,GSO,Kazakhstan,Russia/USSR,Unknown,Unknown,Unknown,1 20499U 90016A   24128.55195892  .00000083  00000+0  00000+0 0  9990,2 20499  13.1306 340.1521 0005449 164.6170 134.7760  1.00352598125170,1.00352598,0.0005449,GSO
12309,ESIAFI 1 (COMSTAR 4),1981,1436.14,-1.0,-,10.2,Inactive,0,GSO,USA,USA,Unknown,Unknown,Unknown,1 12309U 81018A   24125.06845517 -.00000066  00000+0  00000+0 0  9994,2 12309  10.1999 316.6769 0004514 102.2463 257.7032  1.00268825159683,1.00268825,0.0004514,GSO
28498,PARASOL,2004,97.87,-1.0,-,98.44,Inactive,0,LEO,French Guiana,France,Unknown,Unknown,Unknown,1 28498U 04049G   24128.40091376  .00001866  00000+0  31023-3 0  9997,2 28498  98.4431 274.5648 0013770 303.4658  56.5231 14.71334181 35749,14.71334181,0.001377,LEO
20508,NADEZHDA 2,1990,104.77,-1.0,-,82.95,Inactive,0,LEO,Russia,Russia/USSR,Unknown,Unknown,Unknown,1 20508U 90017A   24128.52233763  .00000088  00000+0  76305-4 0  9990,2 20508  82.9530 283.3395 0045385  69.1651 356.5097 13.74424070714515,13.7442407,0.0045385,LEO
20510,OKEAN-2,1990,95.62,-1.0,UNK,82.51,Inactive,0,LEO,Russia,Russia/USSR,Unknown,Unknown,Tsiklon,1 20510U 90018A   24128.49200257  .00006990  00000+0  47759-3 0  9990,2 20510  82.5125 269.7452 0011444 103.9170 321.5545 15.05966338837620,15.05966338,0.0011444,LEO
12319,COSMOS 1249,1981,103.84,-1.0,UNK,64.97,Inactive,0,LEO,Kazakhstan,Russia/USSR,Unknown,Unknown,Unknown,1 12319U 81021A   24128.36785064 -.00000026  00000+0  54280-4 0  9995,2 12319  64.9652 349.7896 0047765 179.0861 181.0297 13.86690917187966,13.86690917,0.0047765,LEO
12320,COSMOS 1250,1981,114.44,-1.0,UNK,74.03,Inactive,0,LEO,Russia,Russia/USSR,Unknown,Unknown,Unknown,1 12320U 81022A   24128.63290187 -.00000010  00000+0  33740-4 0  9996,2 12320  74.0286 310.5460 0052214 153.6945 275.3003 12.58260786982984,12.58260786,0.0052214,LEO
12321,COSMOS 1251,1981,114.61,-1.0,UNK,74.03,Inactive,0,LEO,Russia,Russia/USSR,Unknown,Unknown,Unknown,1 12321U 81022B   24128.46531931  .00000003  00000+0  11923-3 0  9992,2 12321  74.0330  21.4622 0044857 243.6301 290.3159 12.56469232980109,12.56469232,0.0044857,LEO
12322,COSMOS 1252,1981,114.76,-1.0,UNK,74.03,Inactive,0,LEO,Russia,Russia/USSR,Unknown,Unknown,Unknown,1 12322U 81022C   24128.38499986 -.00000017  00000+0 -55132-5 0  9996,2 12322  74.0286  87.9149 0035071 316.2454 163.0013 12.54790998977458,12.54790998,0.0035071,LEO
12323,COSMOS 1253,1981,115.59,-1.0,UNK,74.03,Inactive,0,LEO,Russia,Russia/USSR,Unknown,Unknown,Unknown,1 12323U 81022D   24128.31017859 -.00000024  00000+0 -60782-4 0  9999,2 12323  74.0294  78.5347 0017471 122.9267 350.4029 12.45822727963328,12.45822727,0.0017471,LEO
4132,SOICAL [CONE],1969,100.85,-1.0,UNK,69.99,Inactive,0,LEO,USA,USA,Unknown,Unknown,Unknown,1 04132U 69082K   24128.57111419  .00001883  00000+0  78258-3 0  9993,2 04132  69.9944 215.4171 0007028 131.1496 229.0234 14.27918494810714,14.27918494,0.0007028,LEO
12324,COSMOS 1254,1981,114.91,-1.0,UNK,74.03,Inactive,0,LEO,Russia,Russia/USSR,Unknown,Unknown,Unknown,1 12324U 81022E   24128.50666723  .00000020  00000+0  22916-3 0  9991,2 12324  74.0266 153.4071 0025768  36.0680  77.7113 12.53108888974821,12.53108888,0.0025768,LEO
12325,COSMOS 1255,1981,115.06,-1.0,UNK,74.03,Inactive,0,LEO,Russia,Russia/USSR,Unknown,Unknown,Unknown,1 12325U 81022F   24128.62930497 -.00000006  00000+0  62129-4 0  9993,2 12325  74.0302 217.9544 0016658 112.2140 355.7951 12.51472122972224,12.51472122,0.0016658,LEO
12326,COSMOS 1256,1981,115.24,-1.0,UNK,74.03,Inactive,0,LEO,Russia,Russia/USSR,Unknown,Unknown,Unknown,1 12326U 81022G   24128.56934963 -.00000015  00000+0  81604-5 0  9999,2 12326  74.0279 291.3880 0013000 236.8288 187.0699 12.49581515969338,12.49581515,0.0013,LEO
12327,COSMOS 1257,1981,115.4,-1.0,UNK,74.03,Inactive,0,LEO,Russia,Russia/USSR,Unknown,Unknown,Unknown,1 12327U 81022H   24128.56873750  .00000014  00000+0  19877-3 0  9995,2 12327  74.0318 359.3064 0006761   7.4185   0.9994 12.47838792966547,12.47838792,0.0006761,LEO
4138,COSMOS 304,1969,99.57,-1.0,UNK,74.04,Inactive,0,LEO,Russia,Russia/USSR,Unknown,Unknown,Unknown,1 04138U 69091A   24128.61957452  .00000105  00000+0  36884-4 0  9995,2 04138  74.0396 229.7223 0011857  63.0080 297.2287 14.46224071876327,14.46224071,0.0011857,LEO
20523,INTELSAT 603 (IS-603),1990,1447.51,-1.0,-,13.52,Inactive,0,GSO,USA,INTELSAT,Unknown,Unknown,Unknown,1 20523U 90021A   24127.07063323 -.00000267  00000+0  00000+0 0  9998,2 20523  13.5233  14.7676 0007319  59.7632 121.6599  0.99481271117726,0.99481271,0.0007319,GSO
28707,EXPRESS-AM3,2005,1454.6,2600.0,-,5.35,Inactive,1,GSO,Kazakhstan,Russia/USSR,Commercial,Communications,Proton,1 28707U 05023A   24127.85537914  .00000012  00000+0  00000+0 0  9993,2 28707   5.3507  76.7829 0002110 261.1708 280.7547  0.98996182 45570,0.98996182,0.000211,GSO
20527,COSMOS 2061,1990,104.94,-1.0,UNK,82.94,Inactive,0,LEO,Russia,Russia/USSR,Unknown,Unknown,Unknown,1 20527U 90023A   24128.64874986  .00000083  00000+0  74095-4 0  9998,2 20527  82.9402  18.0805 0029771 243.5039 177.0111 13.72273312709125,13.72273312,0.0029771,LEO
12339,OPS 7350 (DSP 9),1981,1457.11,-1.0,UNK,9.75,Inactive,0,GSO,USA,USA,Unknown,Unknown,Unknown,1 12339U 81025A   24128.50395758 -.00000013  00000+0  00000+0 0  9996,2 12339   9.7464 310.6765 0016699 264.0037  95.7606  0.98825533 18219,0.98825533,0.0016699,GSO
20533,NAVSTAR 19 (USA 54),1990,753.77,-1.0,-,54.01,Inactive,0,MEO,USA,USA,Unknown,Unknown,Unknown,1 20533U 90025A   24122.47839397 -.00000008  00000+0  00000+0 0  9997,2 20533  54.0050 274.4116 0042959 212.6549 148.3600  1.91039436240185,1.91039436,0.0042959,MEO
20536,COSMOS 2063,1990,721.51,-1.0,UNK,66.75,Inactive,0,MEO,Russia,Russia/USSR,Unknown,Unknown,Molniya,1 20536U 90026A   24127.63155471 -.00000082  00000+0  00000+0 0  9990,2 20536  66.7479 214.6938 5899597 143.2884 277.3094  1.99580358248657,1.99580358,0.5899597,MEO
12351,RADUGA 8,1981,1434.83,-1.0,-,8.15,Inactive,0,GSO,Kazakhstan,Russia/USSR,Unknown,Unknown,Unknown,1 12351U 81027A   24128.03133358 -.00000202  00000+0  00000+0 0  9996,2 12351   8.1519 297.1850 0080032 248.6960  23.8411  1.00360003114804,1.00360003,0.0080032,GSO
